48210,ONEWEB-0176,2021,109.55,148.0,+,87.9,Active,1,LEO,Russia,UK,Commercial,Communications,Soyuz,1 48210U 21031A   24269.38045716  .00000071  00000+0  15622-3 0  9995,2 48210  87.8964  54.9393 0001740  96.0418 264.0910 13.14502449165571,13.14502449,0.000174,LEO
48211,ONEWEB-0184,2021,109.55,148.0,+,87.9,Active,1,LEO,Russia,UK,Commercial,Communications,Soyuz,1 48211U 21031B   24269.42961990 -.00000090  00000+0 -27639-3 0  9996,2 48211  87.8964  54.9093 0002601 108.6372 251.5040 13.14502886165553,13.14502886,0.0002601,LEO
48212,ONEWEB-0179,2021,109.55,148.0,+,87.9,Active,1,LEO,Russia,UK,Commercial,Communications,Soyuz,1 48212U 21031C   24269.39948375  .00000225  00000+0  57176-3 0  9992,2 48212  87.8970  54.9224 0001732  91.3265 268.8063 13.14503549165597,13.14503549,0.0001732,LEO
48213,ONEWEB-0180,2021,109.55,148.0,+,87.9,Active,1,LEO,Russia,UK,Commercial,Communications,Soyuz,1 48213U 21031D   24269.43277600 -.00000116  00000+0 -34658-3 0  9995,2 48213  87.8963  54.9106 0001813  89.6759 270.4579 13.14504264165481,13.14504264,0.0001813,LEO
48214,ONEWEB-0218,2021,109.55,148.0,+,87.9,Active,1,LEO,Russia,UK,Commercial,Communications,Soyuz,1 48214U 21031E   24269.37886282  .00000067  00000+0  14745-3 0  9999,2 48214  87.8961  54.9232 0002815 101.6936 258.4509 13.14504057165631,13.14504057,0.0002815,LEO
48215,ONEWEB-0209,2021,109.55,148.0,+,87.9,Active,1,LEO,Russia,UK,Commercial,Communications,Soyuz,1 48215U 21031F   24269.44387878 -.00000111  00000+0 -33457-3 0  9998,2 48215  87.8965  54.9465 0001796  89.4981 270.6355 13.14503845165644,13.14503845,0.0001796,LEO
48216,ONEWEB-0198,2021,109.55,148.0,+,87.9,Active,1,LEO,Russia,UK,Commercial,Communications,Soyuz,1 48216U 21031G   24269.42801793 -.00000110  00000+0 -33071-3 0  9995,2 48216  87.8965  54.9536 0002089  94.0816 266.0552 13.14501824165754,13.14501824,0.0002089,LEO
48217,ONEWEB-0189,2021,109.55,148.0,+,87.9,Active,1,LEO,Russia,UK,Commercial,Communications,Soyuz,1 48217U 21031H   24269.44071672 -.00000114  00000+0 -34067-3 0  9993,2 48217  87.8964  54.9262 0002210  92.3323 267.8059 13.14502875165499,13.14502875,0.000221,LEO
